GLOBALSTAR M084         
1 38040U 11080A   25247.28007712 -.00000095  00000+0  50129-4 0  9997
2 38040  52.0002 167.6872 0000345  95.9173  77.1998 12.62268621632658
GLOBALSTAR M080         
1 38041U 11080B   25247.24997951 -.00000112  00000+0 -45579-4 0  9991
2 38041  52.0053 169.3987 0000786  25.9751 139.5599 12.62268684632777
GLOBALSTAR M082         
1 38042U 11080C   25247.10651824 -.00000087  00000+0  96036-4 0  9997
2 38042  52.0066 125.3049 0000955  45.8734 118.3192 12.62268244633466
GLOBALSTAR M092         
1 38043U 11080D   25247.20535495 -.00000108  00000+0 -24271-4 0  9991
2 38043  52.0067 215.3847 0000301  65.2445 307.5752 12.62265616631938
GLOBALSTAR M090         
1 38044U 11080E   25247.12707712 -.00000082  00000+0  11992-3 0  9991
2 38044  52.0113 119.1049 0000891  68.1426  69.5042 12.62262127633585
GLOBALSTAR M086         
1 38045U 11080F   25247.15346628 -.00000087  00000+0  91460-4 0  9994
2 38045  51.9888 119.4194 0001474 113.1387  28.1931 12.62276601633537
GLOBALSTAR M097         
1 39072U 13005A   25247.14948905 -.00000104  00000+0  86169-6 0  9991
2 39072  52.0064  34.0599 0000932  91.9299 268.1675 12.62265783580788
GLOBALSTAR M093         
1 39073U 13005B   25247.12342618 -.00000091  00000+0  70871-4 0  9995
2 39073  52.0123  27.3768 0001145  89.3768 270.7230 12.62264098580736
